0 YAMAL 300K
1 38978U 12061B   13282.40897329  .00000000  00000-0  10000-3 0  2080
2 38978 000.0149 328.4186 0001693 304.9352 342.1021 01.00266568  2760
0 YAMAL 300K
1 38978U 12061B   13283.43216170  .00000000  00000-0  10000-3 0  2094
2 38978 000.0172 331.8098 0001437 295.7629 357.2451 01.00266787  2774
0 YAMAL 300K
1 38978U 12061B   13284.01840392 -.00000248  00000-0  10000-3 0  2082
2 38978 000.0387 353.4897 0000646 233.6469 249.3182 01.00268606  3431
0 YAMAL 300K
1 38978U 12061B   13285.60480444 -.00000252  00000-0  10000-3 0  2092
2 38978 000.0426 347.7823 0001231 262.8214 078.5180 01.00270039  3447
0 YAMAL 300K
1 38978U 12061B   13286.92115032 -.00000254  00000-0  10000-3 0  2100
2 38978 000.0314 352.8959 0000969 273.7189 177.6682 01.00269218  3466
0 YAMAL 300K
1 38978U 12061B   13288.01312536 -.00000254  00000-0  10000-3 0  2111
2 38978 000.0408 355.7345 0001511 238.9741 243.7814 01.00270279  3474
0 YAMAL 300K
1 38978U 12061B   13289.35951618  .00000000  00000-0  10000-3 0  2128
2 38978 000.0125 330.4825 0001724 309.4376 324.5192 01.00264897  2832
0 YAMAL 300K
1 38978U 12061B   13290.49020089 -.00000252  00000-0  10000-3 0  2124
2 38978 000.0390 002.4433 0001511 232.3086 057.9522 01.00272711  3494
0 YAMAL 300K
1 38978U 12061B   13291.50636108 -.00000250  00000-0  10000-3 0  2131
2 38978 000.0463 003.1934 0001774 235.7006 060.6383 01.00272981  3506
0 YAMAL 300K
1 38978U 12061B   13291.50636108 -.00000250  00000-0  10000-3 0  2142
2 38978 000.0444 357.7017 0001732 243.5002 058.3315 01.00273340  3501
0 YAMAL 300K
1 38978U 12061B   13291.87969801 -.00000249  00000-0  10000-3 0  2150
2 38978 000.0395 004.8273 0001732 236.6463 192.8310 01.00273252  3516
0 YAMAL 300K
1 38978U 12061B   13293.90150419 -.00000245  00000-0  10000-3 0  2160
2 38978 000.0403 005.4356 0001771 236.3526 202.3634 01.00272505  3533
0 YAMAL 300K
1 38978U 12061B   13295.82311810 -.00000242  00000-0  10000-3 0  2175
2 38978 000.0406 006.8225 0001780 235.4546 175.5497 01.00271897  3551
